[{"OBJECT_NAME":"STARLINK-30494","OBJECT_ID":"2023-151G","EPOCH":"2026-03-09T08:39:06.366240","MEAN_MOTION":15.28417441,"ECCENTRICITY":0.00011553,"INCLINATION":43.0027,"RA_OF_ASC_NODE":192.4566,"ARG_OF_PERICENTER":241.5536,"MEAN_ANOMALY":118.52,"EPHEMERIS_TYPE":0,"CLASSIFICATION_TYPE":"U","NORAD_CAT_ID":57970,"ELEMENT_SET_NO":999,"REV_AT_EPOCH":13740,"BSTAR":-3.569111e-5,"MEAN_MOTION_DOT":-1.272e-5,"MEAN_MOTION_DDOT":0},{"OBJECT_NAME":"STARLINK-34493","OBJECT_ID":"2025-133A","EPOCH":"2026-03-09T13:10:09.927264","MEAN_MOTION":15.3019727,"ECCENTRICITY":0.000123,"INCLINATION":53.1574,"RA_OF_ASC_NODE":117.6824,"ARG_OF_PERICENTER":79.1032,"MEAN_ANOMALY":281.0107,"EPHEMERIS_TYPE":0,"CLASSIFICATION_TYPE":"U","NORAD_CAT_ID":64472,"ELEMENT_SET_NO":999,"REV_AT_EPOCH":4116,"BSTAR":0.0012723,"MEAN_MOTION_DOT":0.0003751,"MEAN_MOTION_DDOT":0}]
