STARLINK-30494          
1 57970U 23151G   26068.36049035 -.00001272  00000+0 -35691-4 0  9993
2 57970  43.0027 192.4566 0001155 241.5536 118.5200 15.28417441137406
STARLINK-34493          
1 64472U 25133A   26068.54872601  .00037510  00000+0  12723-2 0  9994
2 64472  53.1574 117.6824 0001230  79.1032 281.0107 15.30197270 41163
